IRIDIUM 63 [-]          
1 25286U 98021B   23360.89967887  .00000756  00000+0  25596-3 0  9996
2 25286  86.3983 307.6134 0002141  92.3585 267.7857 14.35542527346863
IRIDIUM 69 [-]          
1 25319U 98026A   23360.91772309  .00000730  00000+0  22705-3 0  9995
2 25319  86.3984 322.5018 0003171  43.2691 316.8756 14.39721787345588
IRIDIUM 71 [-]          
1 25320U 98026B   23360.95646205  .00000866  00000+0  26871-3 0  9994
2 25320  86.3976 317.2918 0004290  76.0109 284.1567 14.40049646346107
IRIDIUM 73 [-]          
1 25344U 98032C   23360.85612246  .00000998  00000+0  25144-3 0  9992
2 25344  86.4419 275.0211 0002494  70.4230 289.7244 14.50211249352505
IRIDIUM 82 [-]          
1 25467U 98051A   23360.49852089  .00011396  00000+0  63889-3 0  9992
2 25467  86.3924   7.6470 0143204 134.8706 226.4266 15.04807984342323
IRIDIUM 2 [-]           
1 25527U 98066A   23360.90248773  .00050915  00000+0  93306-3 0  9997
2 25527  85.5164  53.4719 0001850 251.3996 108.7060 15.49105749380840
